COSMOS 2228             
1 22286U 92094A   25330.77839545  .00002966  00000+0  25751-3 0  9990
2 22286  82.5178 335.8073 0016419 290.5177  69.4283 14.96618784760665
SL-16 R/B               
1 22566U 93016B   25330.80257875  .00000033  00000+0  41568-4 0  9998
2 22566  71.0090  71.2741 0008170 127.6684 232.5181 14.15289040687616
COSMOS 2242             
1 22626U 93024A   25330.51664398  .00002937  00000+0  25913-3 0  9994
2 22626  82.5200   5.3503 0014892 294.4432  65.5236 14.96008229764965
SL-16 R/B               
1 22803U 93059B   25330.78056225 -.00000099  00000+0 -25253-4 0  9999
2 22803  70.9897 228.1382 0017013 359.2529   0.8566 14.17207954664955
ARIANE 40 R/B           
1 22830U 93061H   25330.76597681  .00000288  00000+0  12171-3 0  9998
2 22830  98.5095  36.5853 0009997 224.3278 135.7107 14.32785828679368
COSMOS 2278             
1 23087U 94023A   25330.62276043  .00000157  00000+0  10671-3 0  9991
2 23087  71.0559  30.7295 0009275 201.7778 158.2952 14.14349439630238
SL-16 R/B               
1 23088U 94023B   25330.57491897  .00000238  00000+0  14745-3 0  9998
2 23088  70.9994 287.4319 0001105 108.5922 251.5320 14.14992798631506
SL-16 R/B               
1 23343U 94074B   25330.65329306  .00000628  00000+0  91113-4 0  9990
2 23343  97.7220   0.5960 0006326 184.5052 287.7256 14.79262143672018
SL-16 R/B               
1 23405U 94077B   25330.73803700 -.00000241  00000+0 -98532-4 0  9991
2 23405  70.9819 209.0764 0004571 296.8077  63.2578 14.15546930601662
ARIANE 40+ R/B          
1 23561U 95021B   25330.76132381  .00000396  00000+0  14061-3 0  9990
2 23561  98.4669  38.5418 0007910  91.6610  19.6498 14.39676992604430
SL-16 R/B               
1 23705U 95058B   25330.59860234  .00000045  00000+0  47577-4 0  9996
2 23705  71.0225  36.6928 0014923 275.6295  84.3126 14.15474803553267
SL-16 R/B               
1 24298U 96051B   25330.62444693 -.00000014  00000+0  19233-4 0  9994
2 24298  70.7608  33.3949 0018883 281.3017  78.5981 14.12394294507094
